OBJECT_NAME,OBJECT_ID,EPOCH,MEAN_MOTION,ECCENTRICITY,INCLINATION,RA_OF_ASC_NODE,ARG_OF_PERICENTER,MEAN_ANOMALY,EPHEMERIS_TYPE,CLASSIFICATION_TYPE,NORAD_CAT_ID,ELEMENT_SET_NO,REV_AT_EPOCH,BSTAR,MEAN_MOTION_DOT,MEAN_MOTION_DDOT
COSMOS 2534 (758),2019-030A,2026-07-11T15:13:47.089056,2.13102037,.00135203,64.3707,191.7932,274.9315,259.4274,0,U,44299,999,5544,0,.106E-5,0
BEIDOU-3 IGSO-2 (C39),2019-035A,2026-07-11T22:49:49.569024,1.00258468,.0039636,55.2507,158.6460,216.4381,15.9219,0,U,44337,999,2591,0,-.109E-5,0
GPS BIII-2  (PRN 18),2019-056A,2026-07-11T14:00:48.131424,2.00569835,.00632866,55.6240,330.1738,198.1146,165.4440,0,U,44506,999,5056,0,-.86E-6,0
BEIDOU-3 M24 (C46),2019-061A,2026-07-11T22:36:56.526624,1.86229198,.0008596,54.3976,181.8931,359.4413,0.5552,0,U,44542,999,4625,0,.85E-6,0
BEIDOU-3 M23 (C45),2019-061B,2026-07-08T10:30:33.647616,1.86227401,.00058609,54.3960,181.9796,339.6838,102.2392,0,U,44543,999,4619,0,.122E-5,0
EUTELSAT 5 WEST B (EGNOS/PRN 121),2019-067A,2026-07-12T03:13:19.301088,1.00271414,.0002982,0.0628,351.6660,121.0829,220.6067,0,U,44624,999,2468,0,-.39E-6,0
BEIDOU-3 M22 (C44),2019-078A,2026-07-11T05:53:37.627296,1.86227377,.00057414,53.9127,298.9816,49.9615,310.1118,0,U,44793,999,4509,0,-.63E-6,0
BEIDOU-3 M21 (C43),2019-078B,2026-07-08T03:55:41.277216,1.86228045,.00037906,53.8889,299.0507,48.5315,311.5256,0,U,44794,999,4504,0,-.63E-6,0
COSMOS 2544 (759),2019-088A,2026-07-11T10:20:31.607232,2.13103003,.00123436,65.5781,72.9223,255.3717,104.5561,0,U,44850,999,5123,0,-.19E-6,0
BEIDOU-3 M19 (C41),2019-090A,2026-07-09T06:26:15.409824,1.86231621,.0016982,56.5775,62.0617,297.5653,280.5359,0,U,44864,999,4464,0,-.47E-6,0
BEIDOU-3 M20 (C42),2019-090B,2026-07-12T06:01:01.318944,1.86231220,.0014577,56.5820,61.9977,312.6520,194.6235,0,U,44865,999,4468,0,-.41E-6,0
BEIDOU-3 G2 (C60),2020-017A,2026-07-12T01:54:53.701344,1.00269470,.0002035,2.9118,47.6753,59.8730,291.1996,0,U,45344,999,2350,0,-.139E-5,0
COSMOS 2545 (760),2020-018A,2026-07-07T20:55:22.502208,2.13102711,.00092133,64.3418,311.6924,230.0449,129.8870,0,U,45358,999,4910,0,-.52E-6,0
BEIDOU-3 G3 (C61),2020-040A,2026-07-12T02:03:32.770080,1.00265431,.0001742,2.5047,67.4755,327.5260,36.3215,0,U,45807,999,2232,0,-.352E-5,0
GPS BIII-3  (PRN 23),2020-041A,2026-07-11T09:55:43.247136,2.00557807,.00649629,56.6842,28.0045,204.6177,333.3873,0,U,45854,999,4452,0,-.52E-6,0
GALAXY 30 (WAAS/PRN 135),2020-056C,2026-07-12T04:21:45.075744,1.00270881,.0001945,0.0035,102.4883,12.0468,115.9727,0,U,46114,999,2154,0,.39E-6,0
COSMOS 2547 (705K),2020-075A,2026-07-11T08:18:42.269184,2.13100073,.00094394,64.6015,191.6691,239.8003,120.1351,0,U,46805,999,4442,0,.11E-5,0
GPS BIII-4  (PRN 14),2020-078A,2026-07-11T23:45:12.982176,2.00564829,.0074476,53.9776,209.7728,207.7242,3.3972,0,U,46826,999,4200,0,.97E-6,0
GPS BIII-5  (PRN 11),2021-054A,2026-07-11T22:52:51.381408,2.00567154,.0026382,55.1616,331.4645,228.5362,142.6846,0,U,48859,999,3725,0,-.88E-6,0
QZS-1R (QZSS/PRN 196),2021-096A,2026-07-10T14:11:14.485632,1.00246773,.07548364,37.5070,79.2376,272.1562,282.0570,0,U,49336,999,1724,0,-.288E-5,0
GSAT0223 (GALILEO 27),2021-116A,2026-07-11T14:56:55.922208,1.70475848,.00023904,57.1523,341.0161,195.7836,160.7891,0,U,49809,999,2859,0,-.86E-6,0
GSAT0224 (GALILEO 28),2021-116B,2026-07-10T06:33:55.425024,1.70475962,.000179,57.1533,341.0513,180.2049,180.8962,0,U,49810,999,2860,0,-.8E-6,0
COSMOS 2557 (706K),2022-075A,2026-07-11T00:59:19.008672,2.13102395,.00107774,64.2833,313.6457,271.9721,87.9097,0,U,52984,999,3122,0,-.63E-6,0
COSMOS 2559 (707K),2022-130A,2026-07-11T19:11:08.838240,2.13101618,.0013043,64.2551,313.7009,180.6765,179.3268,0,U,54031,999,2921,0,-.64E-6,0
COSMOS 2564 (761),2022-161A,2026-07-11T15:25:18.175872,2.13101969,.0012251,64.7436,191.8998,225.0518,134.8769,0,U,54377,999,2815,0,.106E-5,0
GPS BIII-6  (PRN 28),2023-009A,2026-07-12T03:13:11.811936,2.00569737,.0006213,55.1239,147.5384,321.0542,219.3339,0,U,55268,999,2574,0,.2E-6,0
BEIDOU-3 G4 (C62),2023-066A,2026-07-12T04:50:38.704704,1.00273471,.0004866,0.4632,337.9867,188.2063,336.6123,0,U,56564,999,1164,0,-.278E-5,0
NVS-01 (IRNSS-1J),2023-076A,2026-07-12T00:26:24.093888,1.00266111,.0003545,2.1096,243.2340,7.3914,175.3807,0,U,56759,999,1136,0,-.331E-5,0
COSMOS 2569 (703K),2023-114A,2026-07-11T04:27:16.526016,2.13103691,.00098099,65.3157,71.8115,296.2031,63.7608,0,U,57517,999,2277,0,-.21E-6,0
BEIDOU-3 M28 (C50),2023-207A,2026-07-11T23:59:06.940032,1.86229629,.0002514,55.7747,61.4661,3.1911,356.8781,0,U,58654,999,1730,0,-.44E-6,0
BEIDOU-3 M26 (C48),2023-207B,2026-07-10T17:21:03.633408,1.86229637,.0002139,55.7759,61.4958,324.4555,35.5938,0,U,58655,999,1726,0,-.47E-6,0
